*******************************************************************************
Ephemeris / WWW_USER Mon Mar 24 09:17:01 2025 Pasadena, USA      / Horizons    
*******************************************************************************
Target body name: 300163 (2006 VW139)             {source: JPL#20}
Center body name: Earth (399)                     {source: DE441}
Center-site name: Mauna Kea
*******************************************************************************
Start time      : A.D. 2018-Nov-21 03:51:00.0000 UT      
Stop  time      : A.D. 2018-Nov-21 16:24:00.0000 UT      
Step-size       : 1 minutes
*******************************************************************************
Target pole/equ : undefined
Target radii    : undefined                                                    
Center geodetic : 204.5278, 19.8260847, 4.21024   {E-lon(deg),Lat(deg),Alt(km)}
Center cylindric: 204.5278, 6006.35451, 2151.0229 {E-lon(deg),Dxy(km),Dz(km)}
Center pole/equ : ITRF93                          {East-longitude positive}
Center radii    : 6378.137, 6378.137, 6356.752 km {Equator_a, b, pole_c}       
Target primary  : Sun
Vis. interferer : MOON (R_eq= 1737.400) km        {source: DE441}
Rel. light bend : Sun                             {source: DE441}
Rel. lght bnd GM: 1.3271E+11 km^3/s^2                                          
Small-body perts: Yes                             {source: SB441-N16}
Atmos refraction: NO (AIRLESS)
RA format       : HMS
Time format     : CAL 
Calendar mode   : Mixed Julian/Gregorian
RTS-only print  : NO       
EOP file        : eop.250321.p250617                                           
EOP coverage    : DATA-BASED 1962-JAN-20 TO 2025-MAR-21. PREDICTS-> 2025-JUN-16
Units conversion: 1 au= 149597870.700 km, c= 299792.458 km/s, 1 day= 86400.0 s 
Table cut-offs 1: Elevation (-90.0deg=NO ),Airmass (>38.000=NO), Daylight (YES)
Table cut-offs 2: Solar elongation (  0.0,180.0=NO ),Local Hour Angle( 0.0=NO )
Table cut-offs 3: RA/DEC angular rate (     0.0=NO )                           
*******************************************************************************
Initial IAU76/J2000 heliocentric ecliptic osculating elements (au, days, deg.):
  EPOCH=  2457991.5 ! 2017-Aug-26.00 (TDB)         Residual RMS= .24052        
   EC= .2010729135113919   QR= 2.43581750533798    TP= 2457700.5743979034      
   OM= 83.18687361565334   W=  281.0057800900049   IN= 3.240211778004737       
  Equivalent ICRF heliocentric cartesian coordinates (au, au/d):
   X= 5.132894709524352E-01  Y= 2.513143937276953E+00  Z= 1.078150377913554E+00
  VX=-1.001562838274837E-02 VY= 3.317467852193382E-03 VZ= 2.080280624827025E-03
Asteroid physical parameters (km, seconds, rotational period in hours):        
   GM= n.a.                RAD= n.a.               ROTPER= 3240.               
   H= 16.21                G= .150                 B-V= n.a.                   
                           ALBEDO= n.a.            STYP= n.a.                  
*******************************************************************************
 Date__(UT)__HR:MN     R.A._________(ICRF)_________DEC
******************************************************
$$SOE
 2018-Nov-21 03:51 Cm  11 27 01.823479 +06 41 30.66098
 2018-Nov-21 03:52 Cm  11 27 01.857324 +06 41 30.48339
 2018-Nov-21 03:53 Cm  11 27 01.891170 +06 41 30.30580
 2018-Nov-21 03:54 Cm  11 27 01.925018 +06 41 30.12822
 2018-Nov-21 03:55 Cm  11 27 01.958866 +06 41 29.95065
 2018-Nov-21 03:56 Cm  11 27 01.992716 +06 41 29.77308
 2018-Nov-21 03:57 Cm  11 27 02.026566 +06 41 29.59552
 2018-Nov-21 03:58 Cm  11 27 02.060418 +06 41 29.41797
 2018-Nov-21 03:59 Cm  11 27 02.094270 +06 41 29.24042
 2018-Nov-21 04:00 Cm  11 27 02.128124 +06 41 29.06288
 2018-Nov-21 04:01 Cm  11 27 02.161979 +06 41 28.88534
 2018-Nov-21 04:02 Cm  11 27 02.195834 +06 41 28.70781
 2018-Nov-21 04:03 Cm  11 27 02.229691 +06 41 28.53029
 2018-Nov-21 04:04 Cm  11 27 02.263549 +06 41 28.35278
 2018-Nov-21 04:05 Nm  11 27 02.297407 +06 41 28.17527
 2018-Nov-21 04:06 Nm  11 27 02.331267 +06 41 27.99776
 2018-Nov-21 04:07 Nm  11 27 02.365127 +06 41 27.82026
 2018-Nov-21 04:08 Nm  11 27 02.398988 +06 41 27.64277
 2018-Nov-21 04:09 Nm  11 27 02.432851 +06 41 27.46529
 2018-Nov-21 04:10 Nm  11 27 02.466714 +06 41 27.28781
 2018-Nov-21 04:11 Nm  11 27 02.500578 +06 41 27.11034
 2018-Nov-21 04:12 Nm  11 27 02.534443 +06 41 26.93287
 2018-Nov-21 04:13 Nm  11 27 02.568309 +06 41 26.75541
 2018-Nov-21 04:14 Nm  11 27 02.602176 +06 41 26.57796
 2018-Nov-21 04:15 Nm  11 27 02.636043 +06 41 26.40051
 2018-Nov-21 04:16 Nm  11 27 02.669911 +06 41 26.22307
 2018-Nov-21 04:17 Nm  11 27 02.703781 +06 41 26.04564
 2018-Nov-21 04:18 Nm  11 27 02.737651 +06 41 25.86821
 2018-Nov-21 04:19 Nm  11 27 02.771522 +06 41 25.69079
 2018-Nov-21 04:20 Nm  11 27 02.805393 +06 41 25.51337
 2018-Nov-21 04:21 Nm  11 27 02.839266 +06 41 25.33597
 2018-Nov-21 04:22 Nm  11 27 02.873139 +06 41 25.15856
 2018-Nov-21 04:23 Nm  11 27 02.907013 +06 41 24.98117
 2018-Nov-21 04:24 Nm  11 27 02.940888 +06 41 24.80378
 2018-Nov-21 04:25 Nm  11 27 02.974763 +06 41 24.62640
 2018-Nov-21 04:26 Nm  11 27 03.008639 +06 41 24.44902
 2018-Nov-21 04:27 Nm  11 27 03.042516 +06 41 24.27165
 2018-Nov-21 04:28 Nm  11 27 03.076394 +06 41 24.09429
 2018-Nov-21 04:29 Nm  11 27 03.110272 +06 41 23.91693
 2018-Nov-21 04:30 Nm  11 27 03.144151 +06 41 23.73958
 2018-Nov-21 04:31 Nm  11 27 03.178030 +06 41 23.56224
 2018-Nov-21 04:32 Am  11 27 03.211911 +06 41 23.38490
 2018-Nov-21 04:33 Am  11 27 03.245792 +06 41 23.20757
 2018-Nov-21 04:34 Am  11 27 03.279673 +06 41 23.03025
 2018-Nov-21 04:35 Am  11 27 03.313555 +06 41 22.85293
 2018-Nov-21 04:36 Am  11 27 03.347438 +06 41 22.67562
 2018-Nov-21 04:37 Am  11 27 03.381322 +06 41 22.49832
 2018-Nov-21 04:38 Am  11 27 03.415206 +06 41 22.32102
 2018-Nov-21 04:39 Am  11 27 03.449090 +06 41 22.14373
 2018-Nov-21 04:40 Am  11 27 03.482975 +06 41 21.96644
 2018-Nov-21 04:41 Am  11 27 03.516861 +06 41 21.78917
 2018-Nov-21 04:42 Am  11 27 03.550747 +06 41 21.61189
 2018-Nov-21 04:43 Am  11 27 03.584634 +06 41 21.43463
 2018-Nov-21 04:44 Am  11 27 03.618521 +06 41 21.25737
 2018-Nov-21 04:45 Am  11 27 03.652409 +06 41 21.08012
 2018-Nov-21 04:46 Am  11 27 03.686297 +06 41 20.90288
 2018-Nov-21 04:47 Am  11 27 03.720186 +06 41 20.72564
 2018-Nov-21 04:48 Am  11 27 03.754075 +06 41 20.54841
 2018-Nov-21 04:49 Am  11 27 03.787965 +06 41 20.37118
 2018-Nov-21 04:50 Am  11 27 03.821855 +06 41 20.19396
 2018-Nov-21 04:51 Am  11 27 03.855745 +06 41 20.01675
 2018-Nov-21 04:52 Am  11 27 03.889636 +06 41 19.83955
 2018-Nov-21 04:53 Am  11 27 03.923528 +06 41 19.66235
 2018-Nov-21 04:54 Am  11 27 03.957419 +06 41 19.48516
 2018-Nov-21 04:55 Am  11 27 03.991311 +06 41 19.30797
 2018-Nov-21 04:56 Am  11 27 04.025204 +06 41 19.13079
 2018-Nov-21 04:57 Am  11 27 04.059097 +06 41 18.95362
 2018-Nov-21 04:58 Am  11 27 04.092990 +06 41 18.77646
 2018-Nov-21 04:59  m  11 27 04.126884 +06 41 18.59930
 2018-Nov-21 05:00  m  11 27 04.160778 +06 41 18.42215
 2018-Nov-21 05:01  m  11 27 04.194672 +06 41 18.24500
 2018-Nov-21 05:02  m  11 27 04.228566 +06 41 18.06786
 2018-Nov-21 05:03  m  11 27 04.262461 +06 41 17.89073
 2018-Nov-21 05:04  m  11 27 04.296356 +06 41 17.71361
 2018-Nov-21 05:05  m  11 27 04.330252 +06 41 17.53649
 2018-Nov-21 05:06  m  11 27 04.364147 +06 41 17.35938
 2018-Nov-21 05:07  m  11 27 04.398043 +06 41 17.18227
 2018-Nov-21 05:08  m  11 27 04.431939 +06 41 17.00517
 2018-Nov-21 05:09  m  11 27 04.465835 +06 41 16.82808
 2018-Nov-21 05:10  m  11 27 04.499732 +06 41 16.65100
 2018-Nov-21 05:11  m  11 27 04.533629 +06 41 16.47392
 2018-Nov-21 05:12  m  11 27 04.567525 +06 41 16.29685
 2018-Nov-21 05:13  m  11 27 04.601423 +06 41 16.11978
 2018-Nov-21 05:14  m  11 27 04.635320 +06 41 15.94273
 2018-Nov-21 05:15  m  11 27 04.669217 +06 41 15.76567
 2018-Nov-21 05:16  m  11 27 04.703115 +06 41 15.58863
 2018-Nov-21 05:17  m  11 27 04.737012 +06 41 15.41159
 2018-Nov-21 05:18  m  11 27 04.770910 +06 41 15.23456
 2018-Nov-21 05:19  m  11 27 04.804808 +06 41 15.05754
 2018-Nov-21 05:20  m  11 27 04.838706 +06 41 14.88052
 2018-Nov-21 05:21  m  11 27 04.872604 +06 41 14.70351
 2018-Nov-21 05:22  m  11 27 04.906502 +06 41 14.52651
 2018-Nov-21 05:23  m  11 27 04.940400 +06 41 14.34951
 2018-Nov-21 05:24  m  11 27 04.974298 +06 41 14.17252
 2018-Nov-21 05:25  m  11 27 05.008196 +06 41 13.99554
 2018-Nov-21 05:26  m  11 27 05.042094 +06 41 13.81856
 2018-Nov-21 05:27  m  11 27 05.075992 +06 41 13.64159
 2018-Nov-21 05:28  m  11 27 05.109890 +06 41 13.46463
 2018-Nov-21 05:29  m  11 27 05.143788 +06 41 13.28767
 2018-Nov-21 05:30  m  11 27 05.177686 +06 41 13.11072
 2018-Nov-21 05:31  m  11 27 05.211584 +06 41 12.93378
 2018-Nov-21 05:32  m  11 27 05.245482 +06 41 12.75684
 2018-Nov-21 05:33  m  11 27 05.279380 +06 41 12.57991
 2018-Nov-21 05:34  m  11 27 05.313278 +06 41 12.40299
 2018-Nov-21 05:35  m  11 27 05.347176 +06 41 12.22607
 2018-Nov-21 05:36  m  11 27 05.381073 +06 41 12.04917
 2018-Nov-21 05:37  m  11 27 05.414971 +06 41 11.87226
 2018-Nov-21 05:38  m  11 27 05.448868 +06 41 11.69537
 2018-Nov-21 05:39  m  11 27 05.482765 +06 41 11.51848
 2018-Nov-21 05:40  m  11 27 05.516662 +06 41 11.34160
 2018-Nov-21 05:41  m  11 27 05.550559 +06 41 11.16472
 2018-Nov-21 05:42  m  11 27 05.584456 +06 41 10.98786
 2018-Nov-21 05:43  m  11 27 05.618352 +06 41 10.81099
 2018-Nov-21 05:44  m  11 27 05.652248 +06 41 10.63414
 2018-Nov-21 05:45  m  11 27 05.686144 +06 41 10.45729
 2018-Nov-21 05:46  m  11 27 05.720040 +06 41 10.28045
 2018-Nov-21 05:47  m  11 27 05.753936 +06 41 10.10362
 2018-Nov-21 05:48  m  11 27 05.787831 +06 41 09.92679
 2018-Nov-21 05:49  m  11 27 05.821726 +06 41 09.74997
 2018-Nov-21 05:50  m  11 27 05.855621 +06 41 09.57316
 2018-Nov-21 05:51  m  11 27 05.889515 +06 41 09.39635
 2018-Nov-21 05:52  m  11 27 05.923409 +06 41 09.21955
 2018-Nov-21 05:53  m  11 27 05.957303 +06 41 09.04275
